{"type": "FeatureCollection", "features": [ {"type": "Feature", "properties": {"norad_id": 42969, "name": "SENTINEL-5P", "group": "resource", "lat": -59.2184188612888, "lon": 94.4140325322601, "alt_km": 834.7139153958751, "timestamp": "2025-12-16T21:38:56.827269+00:00", "meta": {"OBJECT_NAME": "SENTINEL-5P", "OBJECT_ID": "2017-064A", "EPOCH": "2025-12-16T06:59:13.796160", "MEAN_MOTION": 14.19518482, "ECCENTRICITY": 0.00010009, "INCLINATION": 98.7788, "RA_OF_ASC_NODE": 288.8438, "ARG_OF_PERICENTER": 88.8545, "MEAN_ANOMALY": 271.2745, "EPHEMERIS_TYPE": 0, "CLASSIFICATION_TYPE": "U", "NORAD_CAT_ID": 42969, "ELEMENT_SET_NO": 999, "REV_AT_EPOCH": 42361, "BSTAR": 5.5819381e-05, "MEAN_MOTION_DOT": 7.3e-07, "MEAN_MOTION_DDOT": 0}, "tle": {"line1": "1 42969U 17064A   25350.29113190  .00000073  00000+0  55819-4 0  9990", "line2": "2 42969  98.7788 288.8438 0001000  88.8545 271.2745 14.19518482423616"}}, "geometry": {"type": "Point", "coordinates": [94.4140325322601, -59.2184188612888]}}, {"type": "Feature", "properties": {"norad_id": 42987, "name": "SKYSAT-C11", "group": "resource", "lat": 69.54701543382822, "lon": -31.06877019012535, "alt_km": 416.19927502457085, "timestamp": "2025-12-16T21:38:56.827279+00:00", "meta": {"OBJECT_NAME": "SKYSAT-C11", "OBJECT_ID": "2017-068A", "EPOCH": "2025-12-16T08:45:54.737568", "MEAN_MOTION": 15.47602133, "ECCENTRICITY": 0.00011417, "INCLINATION": 97.4136, "RA_OF_ASC_NODE": 127.9464, "ARG_OF_PERICENTER": 101.6922, "MEAN_ANOMALY": 258.4457, "EPHEMERIS_TYPE": 0, "CLASSIFICATION_TYPE": "U", "NORAD_CAT_ID": 42987, "ELEMENT_SET_NO": 999, "REV_AT_EPOCH": 45487, "BSTAR": 0.00034245771, "MEAN_MOTION_DOT": 0.00017574, "MEAN_MOTION_DDOT": 0}, "tle": {"line1": "1 42987U 17068A   25350.36521687  .00017574  00000+0  34246-3 0  9990", "line2": "2 42987  97.4136 127.9464 0001141 101.6922 258.4457 15.47602133454878"}}, "geometry": {"type": "Point", "coordinates": [-31.06877019012535, 69.54701543382822]}}, {"type": "Feature", "properties": {"norad_id": 42988, "name": "SKYSAT-C10", "group": "resource", "lat": -41.00072199365355, "lon": 128.27409471309662, "alt_km": 478.56081245343466, "timestamp": "2025-12-16T21:38:56.827290+00:00", "meta": {"OBJECT_NAME": "SKYSAT-C10", "OBJECT_ID": "2017-068B", "EPOCH": "2025-12-16T07:43:21.639072", "MEAN_MOTION": 15.32140653, "ECCENTRICITY": 0.00054276, "INCLINATION": 97.4255, "RA_OF_ASC_NODE": 121.1823, "ARG_OF_PERICENTER": 93.663, "MEAN_ANOMALY": 266.5232, "EPHEMERIS_TYPE": 0, "CLASSIFICATION_TYPE": "U", "NORAD_CAT_ID": 42988, "ELEMENT_SET_NO": 999, "REV_AT_EPOCH": 45434, "BSTAR": 0.00028901254, "MEAN_MOTION_DOT": 8.895e-05, "MEAN_MOTION_DDOT": 0}, "tle": {"line1": "1 42988U 17068B   25350.32177823  .00008895  00000+0  28901-3 0  9993", "line2": "2 42988  97.4255 121.1823 0005427  93.6630 266.5232 15.32140653454344"}}, "geometry": {"type": "Point", "coordinates": [128.27409471309662, -41.00072199365355]}}, {"type": "Feature", "properties": {"norad_id": 42989, "name": "SKYSAT-C9", "group": "resource", "lat": -45.71944032834132, "lon": -66.49009502558309, "alt_km": 470.7168589851253, "timestamp": "2025-12-16T21:38:56.827300+00:00", "meta": {"OBJECT_NAME": "SKYSAT-C9", "OBJECT_ID": "2017-068C", "EPOCH": "2025-12-16T08:09:41.576256", "MEAN_MOTION": 15.36144152, "ECCENTRICITY": 0.00106141, "INCLINATION": 97.4185, "RA_OF_ASC_NODE": 120.6219, "ARG_OF_PERICENTER": 76.1554, "MEAN_ANOMALY": 284.087, "EPHEMERIS_TYPE": 0, "CLASSIFICATION_TYPE": "U", "NORAD_CAT_ID": 42989, "ELEMENT_SET_NO": 999, "REV_AT_EPOCH": 45463, "BSTAR": 0.00028716954, "MEAN_MOTION_DOT": 0.0001005, "MEAN_MOTION_DDOT": 0}, "tle": {"line1": "1 42989U 17068C   25350.34006454  .00010050  00000+0  28717-3 0  9998", "line2": "2 42989  97.4185 120.6219 0010614  76.1554 284.0870 15.36144152454632"}}, "geometry": {"type": "Point", "coordinates": [-66.49009502558309, -45.71944032834132]}}, {"type": "Feature", "properties": {"norad_id": 42990, "name": "SKYSAT-C8", "group": "resource", "lat": 29.670299307286523, "lon": -54.81771072214695, "alt_km": 466.37348668889626, "timestamp": "2025-12-16T21:38:56.827310+00:00", "meta": {"OBJECT_NAME": "SKYSAT-C8", "OBJECT_ID": "2017-068D", "EPOCH": "2025-12-16T08:27:52.562016", "MEAN_MOTION": 15.33001727, "ECCENTRICITY": 0.00013469, "INCLINATION": 97.4276, "RA_OF_ASC_NODE": 120.3683, "ARG_OF_PERICENTER": 330.402, "MEAN_ANOMALY": 29.7145, "EPHEMERIS_TYPE": 0, "CLASSIFICATION_TYPE": "U", "NORAD_CAT_ID": 42990, "ELEMENT_SET_NO": 999, "REV_AT_EPOCH": 45426, "BSTAR": 0.00027650493, "MEAN_MOTION_DOT": 8.736e-05, "MEAN_MOTION_DDOT": 0}, "tle": {"line1": "1 42990U 17068D   25350.35269169  .00008736  00000+0  27650-3 0  9998", "line2": "2 42990  97.4276 120.3683 0001346 330.4020  29.7145 15.33001727454268"}}, "geometry": {"type": "Point", "coordinates": [-54.81771072214695, 29.670299307286523]}}, {"type": "Feature", "properties": {"norad_id": 42991, "name": "SKYSAT-C7", "group": "resource", "lat": -3.7026799969920288, "lon": 122.44137587904783, "alt_km": 468.7256262170031, "timestamp": "2025-12-16T21:38:56.827320+00:00", "meta": {"OBJECT_NAME": "SKYSAT-C7", "OBJECT_ID": "2017-068E", "EPOCH": "2025-12-16T07:33:38.875392", "MEAN_MOTION": 15.3240312, "ECCENTRICITY": 0.00074604, "INCLINATION": 97.4283, "RA_OF_ASC_NODE": 121.3686, "ARG_OF_PERICENTER": 45.8156, "MEAN_ANOMALY": 314.3698, "EPHEMERIS_TYPE": 0, "CLASSIFICATION_TYPE": "U", "NORAD_CAT_ID": 42991, "ELEMENT_SET_NO": 999, "REV_AT_EPOCH": 45432, "BSTAR": 0.00027633523, "MEAN_MOTION_DOT": 8.575e-05, "MEAN_MOTION_DDOT": 0}, "tle": {"line1": "1 42991U 17068E   25350.31503328  .00008575  00000+0  27634-3 0  9996", "line2": "2 42991  97.4283 121.3686 0007460  45.8156 314.3698 15.32403120454326"}}, "geometry": {"type": "Point", "coordinates": [122.44137587904783, -3.7026799969920288]}}, {"type": "Feature", "properties": {"norad_id": 42992, "name": "SKYSAT-C6", "group": "resource", "lat": 76.84332611478722, "lon": -23.660780504944412, "alt_km": 460.8722675856843, "timestamp": "2025-12-16T21:38:56.827331+00:00", "meta": {"OBJECT_NAME": "SKYSAT-C6", "OBJECT_ID": "2017-068F", "EPOCH": "2025-12-16T08:39:59.252544", "MEAN_MOTION": 15.31565277, "ECCENTRICITY": 0.0005099, "INCLINATION": 97.4316, "RA_OF_ASC_NODE": 121.8505, "ARG_OF_PERICENTER": 72.5424, "MEAN_ANOMALY": 287.6374, "EPHEMERIS_TYPE": 0, "CLASSIFICATION_TYPE": "U", "NORAD_CAT_ID": 42992, "ELEMENT_SET_NO": 999, "REV_AT_EPOCH": 45431, "BSTAR": 0.00027627105, "MEAN_MOTION_DOT": 8.347e-05, "MEAN_MOTION_DDOT": 0}, "tle": {"line1": "1 42992U 17068F   25350.36110246  .00008347  00000+0  27627-3 0  9994", "line2": "2 42992  97.4316 121.8505 0005099  72.5424 287.6374 15.31565277454313"}}, "geometry": {"type": "Point", "coordinates": [-23.660780504944412, 76.84332611478722]}}, {"type": "Feature", "properties": {"norad_id": 43111, "name": "CARTOSAT-2F", "group": "resource", "lat": 23.84846954357894, "lon": 45.164555962772766, "alt_km": 507.839093268075, "timestamp": "2025-12-16T21:38:56.827341+00:00", "meta": {"OBJECT_NAME": "CARTOSAT-2F", "OBJECT_ID": "2018-004A", "EPOCH": "2025-12-16T07:19:03.127584", "MEAN_MOTION": 15.19315576, "ECCENTRICITY": 0.00012194, "INCLINATION": 97.4321, "RA_OF_ASC_NODE": 47.8851, "ARG_OF_PERICENTER": 145.2644, "MEAN_ANOMALY": 214.867, "EPHEMERIS_TYPE": 0, "CLASSIFICATION_TYPE": "U", "NORAD_CAT_ID": 43111, "ELEMENT_SET_NO": 999, "REV_AT_EPOCH": 43956, "BSTAR": 0.00024754244, "MEAN_MOTION_DOT": 5.16e-05, "MEAN_MOTION_DDOT": 0}, "tle": {"line1": "1 43111U 18004A   25350.30489731  .00005160  00000+0  24754-3 0  9999", "line2": "2 43111  97.4321  47.8851 0001219 145.2644 214.8670 15.19315576439568"}}, "geometry": {"type": "Point", "coordinates": [45.164555962772766, 23.84846954357894]}}, {"type": "Feature", "properties": {"norad_id": 43259, "name": "GAOFEN-1 02", "group": "resource", "lat": -48.67464892847859, "lon": -140.6052611216337, "alt_km": 646.2911986392137, "timestamp": "2025-12-16T21:38:56.827351+00:00", "meta": {"OBJECT_NAME": "GAOFEN-1 02", "OBJECT_ID": "2018-031A", "EPOCH": "2025-12-16T07:36:05.865984", "MEAN_MOTION": 14.76422633, "ECCENTRICITY": 0.00019413, "INCLINATION": 98.0807, "RA_OF_ASC_NODE": 48.1075, "ARG_OF_PERICENTER": 203.7986, "MEAN_ANOMALY": 156.3134, "EPHEMERIS_TYPE": 0, "CLASSIFICATION_TYPE": "U", "NORAD_CAT_ID": 43259, "ELEMENT_SET_NO": 999, "REV_AT_EPOCH": 41571, "BSTAR": 8.3232253e-05, "MEAN_MOTION_DOT": 5.27e-06, "MEAN_MOTION_DDOT": 0}, "tle": {"line1": "1 43259U 18031A   25350.31673456  .00000527  00000+0  83232-4 0  9991", "line2": "2 43259  98.0807  48.1075 0001941 203.7986 156.3134 14.76422633415711"}}, "geometry": {"type": "Point", "coordinates": [-140.6052611216337, -48.67464892847859]}}, {"type": "Feature", "properties": {"norad_id": 43260, "name": "GAOFEN-1 03", "group": "resource", "lat": -15.210067931612533, "lon": 50.7826676234562, "alt_km": 644.3859252294442, "timestamp": "2025-12-16T21:38:56.827361+00:00", "meta": {"OBJECT_NAME": "GAOFEN-1 03", "OBJECT_ID": "2018-031B", "EPOCH": "2025-12-16T08:42:23.278752", "MEAN_MOTION": 14.76444522, "ECCENTRICITY": 0.00018054, "INCLINATION": 98.0795, "RA_OF_ASC_NODE": 48.0299, "ARG_OF_PERICENTER": 304.3008, "MEAN_ANOMALY": 55.8031, "EPHEMERIS_TYPE": 0, "CLASSIFICATION_TYPE": "U", "NORAD_CAT_ID": 43260, "ELEMENT_SET_NO": 999, "REV_AT_EPOCH": 41571, "BSTAR": 0.00013744265, "MEAN_MOTION_DOT": 9.04e-06, "MEAN_MOTION_DDOT": 0}, "tle": {"line1": "1 43260U 18031B   25350.36276943  .00000904  00000+0  13744-3 0  9997", "line2": "2 43260  98.0795  48.0299 0001805 304.3008  55.8031 14.76444522415718"}}, "geometry": {"type": "Point", "coordinates": [50.7826676234562, -15.210067931612533]}}]}